[
    {
        "Altitude(m)": 717707.2544651771,
        "Argument of Periapsis(deg)": 0.0011390121186627068,
        "Eccentricity": 0.0,
        "Inclination(deg)": 45.0,
        "Latitude(deg)": -44.72685916446298,
        "Longitude(deg)": -179.9200950652853,
        "Mean Anomaly(deg)": 262.97152166474814,
        "RAAN(deg)": 19.99892480585418,
        "Satellite Name": "Constellation 1 104",
        "Satellite Number": 104,
        "Semi-Major Axis(m)": 7083131.272910544,
        "Time(s)": 19
    },
    {
        "Altitude(m)": 717710.263257886,
        "Argument of Periapsis(deg)": 0.0011989601249081123,
        "Eccentricity": 0.0,
        "Inclination(deg)": 45.0,
        "Latitude(deg)": -44.73417940806449,
        "Longitude(deg)": -179.83981380893675,
        "Mean Anomaly(deg)": 263.032222804998,
        "RAAN(deg)": 19.99886821668861,
        "Satellite Name": "Constellation 1 104",
        "Satellite Number": 104,
        "Semi-Major Axis(m)": 7083131.272910544,
        "Time(s)": 20
    },
    {
        "Altitude(m)": 717713.2462810887,
        "Argument of Periapsis(deg)": 0.001258908131153518,
        "Eccentricity": 0.0,
        "Inclination(deg)": 45.0,
        "Latitude(deg)": -44.74143729242418,
        "Longitude(deg)": -179.7595113950119,
        "Mean Anomaly(deg)": 263.09292394524783,
        "RAAN(deg)": 19.99881162752304,
        "Satellite Name": "Constellation 1 104",
        "Satellite Number": 104,
        "Semi-Major Axis(m)": 7083131.272910544,
        "Time(s)": 21
    },
    {
        "Altitude(m)": 717716.2035237593,
        "Argument of Periapsis(deg)": 0.0013188561373989236,
        "Eccentricity": 0.0,
        "Inclination(deg)": 45.0,
        "Latitude(deg)": -44.7486327865291,
        "Longitude(deg)": -179.67918816207236,
        "Mean Anomaly(deg)": 263.15362508549777,
        "RAAN(deg)": 19.998755038357473,
        "Satellite Name": "Constellation 1 104",
        "Satellite Number": 104,
        "Semi-Major Axis(m)": 7083131.272910544,
        "Time(s)": 22
    },
    {
        "Altitude(m)": 717719.1349749562,
        "Argument of Periapsis(deg)": 0.0013788041436443293,
        "Eccentricity": 0.0,
        "Inclination(deg)": 45.0,
        "Latitude(deg)": -44.75576585961456,
        "Longitude(deg)": -179.59884394474548,
        "Mean Anomaly(deg)": 263.2143262257477,
        "RAAN(deg)": 19.998698449191902,
        "Satellite Name": "Constellation 1 104",
        "Satellite Number": 104,
        "Semi-Major Axis(m)": 7083131.272910544,
        "Time(s)": 23
    },
    {
        "Altitude(m)": 717722.0406238507,
        "Argument of Periapsis(deg)": 0.001438752149889735,
        "Eccentricity": 0.0,
        "Inclination(deg)": 45.0,
        "Latitude(deg)": -44.76283648116284,
        "Longitude(deg)": -179.5184790823032,
        "Mean Anomaly(deg)": 263.2750273659976,
        "RAAN(deg)": 19.998641860026332,
        "Satellite Name": "Constellation 1 104",
        "Satellite Number": 104,
        "Semi-Major Axis(m)": 7083131.272910544,
        "Time(s)": 24
    },
    {
        "Altitude(m)": 717724.9204596885,
        "Argument of Periapsis(deg)": 0.0014987001561351404,
        "Eccentricity": 0.0,
        "Inclination(deg)": 45.0,
        "Latitude(deg)": -44.769844620905296,
        "Longitude(deg)": -179.43809374627097,
        "Mean Anomaly(deg)": 263.33572850624745,
        "RAAN(deg)": 19.99858527086076,
        "Satellite Name": "Constellation 1 104",
        "Satellite Number": 104,
        "Semi-Major Axis(m)": 7083131.272910544,
        "Time(s)": 25
    },
    {
        "Altitude(m)": 717727.7744718237,
        "Argument of Periapsis(deg)": 0.001558648162380546,
        "Eccentricity": 0.0,
        "Inclination(deg)": 45.0,
        "Latitude(deg)": -44.77679024882232,
        "Longitude(deg)": -179.35768810852318,
        "Mean Anomaly(deg)": 263.3964296464974,
        "RAAN(deg)": 19.99852868169519,
        "Satellite Name": "Constellation 1 104",
        "Satellite Number": 104,
        "Semi-Major Axis(m)": 7083131.272910544,
        "Time(s)": 26
    },
    {
        "Altitude(m)": 717730.6026497079,
        "Argument of Periapsis(deg)": 0.0016185961686259519,
        "Eccentricity": 0.0,
        "Inclination(deg)": 45.0,
        "Latitude(deg)": -44.78367333514417,
        "Longitude(deg)": -179.2772623412797,
        "Mean Anomaly(deg)": 263.4571307867473,
        "RAAN(deg)": 19.998472092529624,
        "Satellite Name": "Constellation 1 104",
        "Satellite Number": 104,
        "Semi-Major Axis(m)": 7083131.272910544,
        "Time(s)": 27
    },
    {
        "Altitude(m)": 717733.4049828787,
        "Argument of Periapsis(deg)": 0.0016785441748713573,
        "Eccentricity": 0.0,
        "Inclination(deg)": 45.0,
        "Latitude(deg)": -44.79049385035149,
        "Longitude(deg)": -179.19681661710396,
        "Mean Anomaly(deg)": 263.5178319269972,
        "RAAN(deg)": 19.998415503364054,
        "Satellite Name": "Constellation 1 104",
        "Satellite Number": 104,
        "Semi-Major Axis(m)": 7083131.272910544,
        "Time(s)": 28
    },
    {
        "Altitude(m)": 717736.1814609678,
        "Argument of Periapsis(deg)": 0.001738492181116763,
        "Eccentricity": 0.0,
        "Inclination(deg)": 45.0,
        "Latitude(deg)": -44.79725176517586,
        "Longitude(deg)": -179.11635110889947,
        "Mean Anomaly(deg)": 263.57853306724706,
        "RAAN(deg)": 19.998358914198484,
        "Satellite Name": "Constellation 1 104",
        "Satellite Number": 104,
        "Semi-Major Axis(m)": 7083131.272910544,
        "Time(s)": 29
    },
    {
        "Altitude(m)": 717738.9320737142,
        "Argument of Periapsis(deg)": 0.0017984401873621684,
        "Eccentricity": 0.0,
        "Inclination(deg)": 45.0,
        "Latitude(deg)": -44.80394705060019,
        "Longitude(deg)": -179.0358661580049,
        "Mean Anomaly(deg)": 263.639234207497,
        "RAAN(deg)": 19.998302325032913,
        "Satellite Name": "Constellation 1 104",
        "Satellite Number": 104,
        "Semi-Major Axis(m)": 7083131.272910544,
        "Time(s)": 30
    },
    {
        "Altitude(m)": 717741.6568109411,
        "Argument of Periapsis(deg)": 0.0018583881936075745,
        "Eccentricity": 0.0,
        "Inclination(deg)": 45.0,
        "Latitude(deg)": -44.8105796778604,
        "Longitude(deg)": -178.9553616018034,
        "Mean Anomaly(deg)": 263.69993534774693,
        "RAAN(deg)": 19.998245735867346,
        "Satellite Name": "Constellation 1 104",
        "Satellite Number": 104,
        "Semi-Major Axis(m)": 7083131.272910544,
        "Time(s)": 31
    },
    {
        "Altitude(m)": 717744.355662572,
        "Argument of Periapsis(deg)": 0.0019183361998529795,
        "Eccentricity": 0.0,
        "Inclination(deg)": 45.0,
        "Latitude(deg)": -44.81714961844429,
        "Longitude(deg)": -178.87483778230126,
        "Mean Anomaly(deg)": 263.7606364879968,
        "RAAN(deg)": 19.998189146701776,
        "Satellite Name": "Constellation 1 104",
        "Satellite Number": 104,
        "Semi-Major Axis(m)": 7083131.272910544,
        "Time(s)": 32
    },
    {
        "Altitude(m)": 717747.0286186257,
        "Argument of Periapsis(deg)": 0.0019782842060983856,
        "Eccentricity": 0.0,
        "Inclination(deg)": 45.0,
        "Latitude(deg)": -44.82365684409322,
        "Longitude(deg)": -178.7942948737379,
        "Mean Anomaly(deg)": 263.8213376282466,
        "RAAN(deg)": 19.998132557536206,
        "Satellite Name": "Constellation 1 104",
        "Satellite Number": 104,
        "Semi-Major Axis(m)": 7083131.272910544,
        "Time(s)": 33
    },
    {
        "Altitude(m)": 717749.675669214,
        "Argument of Periapsis(deg)": 0.0020382322123437906,
        "Eccentricity": 0.0,
        "Inclination(deg)": 45.0,
        "Latitude(deg)": -44.830101326802456,
        "Longitude(deg)": -178.71373305067982,
        "Mean Anomaly(deg)": 263.88203876849656,
        "RAAN(deg)": 19.99807596837064,
        "Satellite Name": "Constellation 1 104",
        "Satellite Number": 104,
        "Semi-Major Axis(m)": 7083131.272910544,
        "Time(s)": 34
    },
    {
        "Altitude(m)": 717752.2968045472,
        "Argument of Periapsis(deg)": 0.002098180218589197,
        "Eccentricity": 0.0,
        "Inclination(deg)": 45.0,
        "Latitude(deg)": -44.83648303882171,
        "Longitude(deg)": -178.63315248801814,
        "Mean Anomaly(deg)": 263.9427399087465,
        "RAAN(deg)": 19.998019379205065,
        "Satellite Name": "Constellation 1 104",
        "Satellite Number": 104,
        "Semi-Major Axis(m)": 7083131.272910544,
        "Time(s)": 35
    },
    {
        "Altitude(m)": 717754.8920149294,
        "Argument of Periapsis(deg)": 0.002158128224834602,
        "Eccentricity": 0.0,
        "Inclination(deg)": 45.0,
        "Latitude(deg)": -44.8428019526557,
        "Longitude(deg)": -178.55255336096545,
        "Mean Anomaly(deg)": 264.00344104899636,
        "RAAN(deg)": 19.997962790039498,
        "Satellite Name": "Constellation 1 104",
        "Satellite Number": 104,
        "Semi-Major Axis(m)": 7083131.272910544,
        "Time(s)": 36
    },
    {
        "Altitude(m)": 717757.4612907609,
        "Argument of Periapsis(deg)": 0.002218076231080008,
        "Eccentricity": 0.0,
        "Inclination(deg)": 45.0,
        "Latitude(deg)": -44.8490580410644,
        "Longitude(deg)": -178.4719360131507,
        "Mean Anomaly(deg)": 264.06414218924624,
        "RAAN(deg)": 19.997906200873928,
        "Satellite Name": "Constellation 1 104",
        "Satellite Number": 104,
        "Semi-Major Axis(m)": 7083131.272910544,
        "Time(s)": 37
    }
]